NORAD_CAT_ID,OBJECT_NAME,OBJECT_TYPE,EPOCH,MEAN_MOTION,ECCENTRICITY,INCLINATION,RA_OF_ASC_NODE,ARG_OF_PERICENTER,MEAN_ANOMALY,BSTAR,MEAN_MOTION_DOT,MEAN_MOTION_DDOT,TLE_LINE0,TLE_LINE1,TLE_LINE2,SEMIMAJOR_AXIS,PERIOD,APOGEE,PERIGEE,DECAYED
54081.0,STARLINK-5165,PAYLOAD,2024-03-02 14:00:01,15.08836661,0.0001363,53.2168,43.0703,90.9629,22.4063,-0.00044623,-7.382e-05,0.0,0 STARLINK-5165,1 54081U 22136AG  24062.58334491 -.00007382  00000-0 -44623-3 0  9997,2 54081  53.2168  43.0703 0001363  90.9629  22.4063 15.08836661 76194,6917.891,95.438,540.699,538.813,0.0
54081.0,STARLINK-5165,PAYLOAD,2024-03-02 22:00:00,15.08826897,0.0001424,53.2171,41.573,99.984,24.9641,0.0027727,0.000441,0.0,0 STARLINK-5165,1 54081U 22136AG  24062.91667824  .00044100  00000-0  27727-2 0  9995,2 54081  53.2171  41.5730 0001424  99.9840  24.9641 15.08826897  5835,6917.92,95.438,540.771,538.8,0.0
54081.0,STARLINK-5165,PAYLOAD,2024-03-03 14:00:01,15.08840919,0.0001345,53.2168,38.5813,89.5949,58.6038,-0.00085717,-0.00013904,0.0,0 STARLINK-5165,1 54081U 22136AG  24063.58335648 -.00013904  00000-0 -85717-3 0  9999,2 54081  53.2168  38.5813 0001345  89.5949  58.6038 15.08840919 76345,6917.878,95.437,540.673,538.812,0.0
54081.0,STARLINK-5165,PAYLOAD,2024-03-03 22:00:00,15.08834835,0.00014,53.2171,37.0842,97.1955,62.5248,0.0021281,0.00033738,0.0,0 STARLINK-5165,1 54081U 22136AG  24063.91667824  .00033738  00000-0  21281-2 0  9990,2 54081  53.2171  37.0842 0001400  97.1955  62.5248 15.08834835  5821,6917.896,95.438,540.73,538.793,0.0
54081.0,STARLINK-5165,PAYLOAD,2024-03-04 06:00:00,15.08897121,0.0001399,53.2168,35.5896,81.3284,90.0181,-0.0080521,-0.00126393,0.0,0 STARLINK-5165,1 54081U 22136AG  24064.25001157 -.00126393  00000-0 -80521-2 0  9993,2 54081  53.2168  35.5896 0001399  81.3284  90.0181 15.08897121 76441,6917.706,95.434,540.539,538.603,0.0
54081.0,STARLINK-5165,PAYLOAD,2024-03-04 14:00:01,15.08803314,0.0001349,53.2165,34.0921,77.685,105.2609,-0.00028516,-4.819e-05,0.0,0 STARLINK-5165,1 54081U 22136AG  24064.58334491 -.00004819  00000-0 -28516-3 0  9994,2 54081  53.2165  34.0921 0001349  77.6850 105.2609 15.08803314  5721,6917.993,95.44,540.791,538.924,0.0
54081.0,STARLINK-5165,PAYLOAD,2024-03-04 22:00:00,15.08810752,0.000139,53.2167,32.5953,85.8403,108.6519,0.002322,0.0003683,0.0,0 STARLINK-5165,1 54081U 22136AG  24064.91667824  .00036830  00000-0  23220-2 0  9992,2 54081  53.2167  32.5953 0001390  85.8403 108.6519 15.08810752 76541,6917.97,95.439,540.796,538.873,0.0
54081.0,STARLINK-5165,PAYLOAD,2024-03-05 03:30:04,15.08823159,0.0001627,53.2193,31.5671,84.3107,275.807,-7.2621e-05,-1.443e-05,0.0,0 STARLINK-5165,1 54081U 22136AG  24065.14588765 -.00001443  00000-0 -72621-4 0  9999,2 54081  53.2193  31.5671 0001627  84.3107 275.8070 15.08823159 76571,6917.932,95.439,540.922,538.671,0.0
54081.0,STARLINK-5165,PAYLOAD,2024-03-05 06:40:50,15.08827358,0.0001635,53.2196,30.9726,84.8766,275.2412,-3.6049e-05,-8.61e-06,0.0,0 STARLINK-5165,1 54081U 22136AG  24065.27836518 -.00000861  00000-0 -36049-4 0  9992,2 54081  53.2196  30.9726 0001635  84.8766 275.2412 15.08827358 76112,6917.919,95.438,540.915,538.653,0.0
54081.0,STARLINK-5165,PAYLOAD,2024-03-05 20:59:18,15.08840157,0.0001407,53.2194,28.2939,80.7458,279.3693,0.00014644,2.043e-05,0.0,0 STARLINK-5165,1 54081U 22136AG  24065.87451444  .00002043  00000-0  14644-3 0  9997,2 54081  53.2194  28.2939 0001407  80.7458 279.3693 15.08840157 76686,6917.88,95.438,540.718,538.772,0.0
54081.0,STARLINK-5165,PAYLOAD,2024-03-06 03:20:49,15.08856071,0.0001262,53.2165,27.107,92.5206,267.593,0.00023664,3.482e-05,0.0,0 STARLINK-5165,1 54081U 22136AG  24066.13946502  .00003482  00000-0  23664-3 0  9991,2 54081  53.2165  27.1070 0001262  92.5206 267.5930 15.08856071 76729,6917.831,95.437,540.569,538.823,0.0
54081.0,STARLINK-5165,PAYLOAD,2024-03-06 06:31:36,15.08861447,0.0001457,53.217,26.512,83.8931,276.2227,0.00053501,8.242e-05,0.0,0 STARLINK-5165,1 54081U 22136AG  24066.27194557  .00008242  00000-0  53501-3 0  9993,2 54081  53.2170  26.5120 0001457  83.8931 276.2227 15.08861447 76266,6917.815,95.436,540.688,538.672,0.0
54081.0,STARLINK-5165,PAYLOAD,2024-03-07 03:11:37,15.08853403,0.0001496,53.2164,22.6462,94.5274,265.5889,0.00055969,8.634e-05,0.0,0 STARLINK-5165,1 54081U 22136AG  24067.13307056  .00008634  00000-0  55969-3 0  9994,2 54081  53.2164  22.6462 0001496  94.5274 265.5889 15.08853403 76872,6917.839,95.437,540.739,538.67,0.0
54081.0,STARLINK-5165,PAYLOAD,2024-03-07 14:19:19,15.08836152,0.0001418,53.2157,20.5623,102.8479,257.2672,0.00044316,6.771e-05,0.0,0 STARLINK-5165,1 54081U 22136AG  24067.59675239  .00006771  00000-0  44316-3 0  9999,2 54081  53.2157  20.5623 0001418 102.8479 257.2672 15.08836152 76469,6917.892,95.438,540.738,538.776,0.0
54081.0,STARLINK-5165,PAYLOAD,2024-03-08 03:02:24,15.0884121,0.0001568,53.2166,18.1838,96.8968,263.2202,0.0012431,0.00019552,0.0,0 STARLINK-5165,1 54081U 22136AG  24068.12667568  .00019552  00000-0  12431-2 0  9998,2 54081  53.2166  18.1838 0001568  96.8968 263.2202 15.08841210 77021,6917.877,95.437,540.826,538.657,0.0
54081.0,STARLINK-5165,PAYLOAD,2024-03-08 14:10:06,15.08836975,0.0002279,53.2186,16.0993,100.0986,260.0264,0.00025985,3.849e-05,0.0,0 STARLINK-5165,1 54081U 22136AG  24068.59035589  .00003849  00000-0  25985-3 0  9992,2 54081  53.2186  16.0993 0002279 100.0986 260.0264 15.08836975 76619,6917.89,95.438,541.331,538.178,0.0
54081.0,STARLINK-5165,PAYLOAD,2024-03-08 20:31:39,15.08838287,0.0001481,53.2173,14.9107,101.7976,258.3183,0.00043846,6.697e-05,0.0,0 STARLINK-5165,1 54081U 22136AG  24068.85531379  .00006697  00000-0  43846-3 0  9999,2 54081  53.2173  14.9107 0001481 101.7976 258.3183 15.08838287 76652,6917.886,95.438,540.775,538.726,0.0
54081.0,STARLINK-5165,PAYLOAD,2024-03-09 06:03:57,15.08856149,0.0001381,53.2183,13.1288,90.2314,269.8837,0.00069231,0.00010752,0.0,0 STARLINK-5165,1 54081U 22136AG  24069.25275122  .00010752  00000-0  69231-3 0  9998,2 54081  53.2183  13.1288 0001381  90.2314 269.8837 15.08856149 77191,6917.831,95.437,540.651,538.741,0.0
54081.0,STARLINK-5165,PAYLOAD,2024-03-10 02:43:58,15.08848797,0.0001412,53.2173,9.2608,93.7894,266.326,0.00019297,2.785e-05,0.0,0 STARLINK-5165,1 54081U 22136AG  24070.11386889  .00002785  00000-0  19297-3 0  9992,2 54081  53.2173   9.2608 0001412  93.7894 266.3260 15.08848797 77325,6917.854,95.437,540.695,538.742,0.0
54081.0,STARLINK-5165,PAYLOAD,2024-03-10 12:16:16,15.08847365,0.0001318,53.2179,7.4765,93.283,266.8313,9.9522e-05,1.297e-05,0.0,0 STARLINK-5165,1 54081U 22136AG  24070.51130679  .00001297  00000-0  99522-4 0  9997,2 54081  53.2179   7.4765 0001318  93.2830 266.8313 15.08847365 76902,6917.858,95.437,540.635,538.811,0.0
54081.0,STARLINK-5165,PAYLOAD,2024-03-11 02:34:45,15.08838531,0.0001551,53.2189,4.8055,97.7853,262.3316,-3.8115e-05,-8.95e-06,0.0,0 STARLINK-5165,1 54081U 22136AG  24071.10747333 -.00000895  00000-0 -38115-4 0  9990,2 54081  53.2189   4.8055 0001551  97.7853 262.3316 15.08838531 77471,6917.885,95.438,540.823,538.677,0.0
54081.0,STARLINK-5165,PAYLOAD,2024-03-11 12:07:04,15.08839307,0.0001401,53.218,3.0165,86.2551,273.8601,5.7843e-06,-1.96e-06,0.0,0 STARLINK-5165,1 54081U 22136AG  24071.50491266 -.00000196  00000-0  57843-5 0  9998,2 54081  53.2180   3.0165 0001401  86.2551 273.8601 15.08839307 77057,6917.883,95.438,540.717,538.778,0.0
54081.0,STARLINK-5165,PAYLOAD,2024-03-12 02:25:32,15.08840285,0.0001417,53.2186,0.3411,89.2478,270.8676,2.4062e-05,9.5e-07,0.0,0 STARLINK-5165,1 54081U 22136AG  24072.10107357  .00000095  00000-0  24062-4 0  9993,2 54081  53.2186   0.3411 0001417  89.2478 270.8676 15.08840285 77141,6917.88,95.438,540.725,538.764,0.0
54081.0,STARLINK-5165,PAYLOAD,2024-03-13 03:51:43,15.08842667,0.0001477,53.219,355.5829,88.8484,271.2677,0.00015707,2.213e-05,0.0,0 STARLINK-5165,1 54081U 22136AG  24073.16091466  .00002213  00000-0  15707-3 0  9992,2 54081  53.2190 355.5829 0001477  88.8484 271.2677 15.08842667 77784,6917.872,95.437,540.759,538.715,0.0
54081.0,STARLINK-5165,PAYLOAD,2024-03-13 11:48:39,15.08837143,0.000165,53.219,354.0962,85.0933,275.0248,6.5852e-05,7.6e-06,0.0,0 STARLINK-5165,1 54081U 22136AG  24073.49211856  .00000760  00000-0  65852-4 0  9997,2 54081  53.2190 354.0962 0001650  85.0933 275.0248 15.08837143 77359,6917.889,95.438,540.896,538.613,0.0
54081.0,STARLINK-5165,PAYLOAD,2024-03-13 22:56:20,15.08840734,0.0001573,53.2194,352.0144,84.6124,275.5048,0.00011557,1.552e-05,0.0,0 STARLINK-5165,1 54081U 22136AG  24073.95579811  .00001552  00000-0  11557-3 0  9998,2 54081  53.2194 352.0144 0001573  84.6124 275.5048 15.08840734 77425,6917.878,95.438,540.831,538.655,0.0
54081.0,STARLINK-5165,PAYLOAD,2024-03-14 03:42:30,15.08847429,0.0001549,53.2185,351.1213,93.4029,266.714,0.00021368,3.115e-05,0.0,0 STARLINK-5165,1 54081U 22136AG  24074.15451447  .00003115  00000-0  21368-3 0  9993,2 54081  53.2185 351.1213 0001549  93.4029 266.7140 15.08847429 77936,6917.858,95.437,540.794,538.651,0.0
54081.0,STARLINK-5165,PAYLOAD,2024-03-15 00:22:30,15.08843277,0.000157,53.2182,347.2563,116.3812,243.7342,4.7999e-05,4.76e-06,0.0,0 STARLINK-5165,1 54081U 22136AG  24075.01563649  .00000476  00000-0  47999-4 0  9993,2 54081  53.2182 347.2563 0001570 116.3812 243.7342 15.08843277 78067,6917.87,95.437,540.821,538.649,0.0
54081.0,STARLINK-5165,PAYLOAD,2024-03-15 17:51:45,15.08841949,0.0001634,53.2178,343.9899,76.7452,283.3722,0.00014835,2.074e-05,0.0,0 STARLINK-5165,1 54081U 22136AG  24075.74428153  .00002074  00000-0  14835-3 0  9991,2 54081  53.2178 343.9899 0001634  76.7452 283.3722 15.08841949 78175,6917.874,95.437,540.87,538.609,0.0
54081.0,STARLINK-5165,PAYLOAD,2024-03-15 22:37:55,15.08843617,0.0001596,53.2182,343.0958,112.3932,247.7229,0.0001543,2.169e-05,0.0,0 STARLINK-5165,1 54081U 22136AG  24075.94299798  .00002169  00000-0  15430-3 0  9991,2 54081  53.2182 343.0958 0001596 112.3932 247.7229 15.08843617 77724,6917.869,95.437,540.838,538.63,0.0
